{
  "63788": {
    "noradId": "63788",
    "tle": [
      "1 63788C 25091P   26060.78937500 -.00001449  00000+0 -52477-4 0   609",
      "2 63788  42.9997  97.1246 0001168 266.5400 111.2575 15.27587064    10"
    ]
  },
  "63789": {
    "noradId": "63789",
    "tle": [
      "1 63789C 25091Q   26060.79284722  .00002158  00000+0  78146-4 0   609",
      "2 63789  43.0010  96.9509 0001327 261.1641 199.4255 15.27579113    12"
    ]
  },
  "63790": {
    "noradId": "63790",
    "tle": [
      "1 63790C 25091R   26060.79076389 -.00011902  00000+0 -43114-3 0   604",
      "2 63790  43.0020  96.8782 0001392 272.1661 212.3292 15.27587279    11"
    ]
  },
  "63791": {
    "noradId": "63791",
    "tle": [
      "1 63791C 25091S   26060.79562500 -.00009163  00000+0 -33198-3 0   607",
      "2 63791  43.0030  97.4353 0001418 256.3183  14.4060 15.27579794    13"
    ]
  },
  "63792": {
    "noradId": "63792",
    "tle": [
      "1 63792C 25091T   26060.79562500  .00002166  00000+0  78374-4 0   608",
      "2 63792  43.0023  97.3823 0001112 263.4800  28.3812 15.27604496    10"
    ]
  },
  "63793": {
    "noradId": "63793",
    "tle": [
      "1 63793C 25091U   26060.79423611 -.00014756  00000+0 -53457-3 0   602",
      "2 63793  43.0011  96.9095 0001450 263.5267 218.8705 15.27585336    15"
    ]
  },
  "63794": {
    "noradId": "63794",
    "tle": [
      "1 63794C 25091V   26060.79284722 -.00003002  00000+0 -10870-3 0   605",
      "2 63794  43.0025  96.8348 0001337 264.8665 245.2488 15.27586535    15"
    ]
  },
  "63795": {
    "noradId": "63795",
    "tle": [
      "1 63795C 25091W   26060.79562500  .00005814  00000+0  21054-3 0   606",
      "2 63795  43.0007  97.2781 0001328 269.6630  64.7364 15.27576319    13"
    ]
  },
  "63796": {
    "noradId": "63796",
    "tle": [
      "1 63796C 25091X   26060.79076389  .00004649  00000+0  16834-3 0   607",
      "2 63796  43.0011  97.3250 0001234 259.6139  40.9380 15.27581830    18"
    ]
  },
  "63797": {
    "noradId": "63797",
    "tle": [
      "1 63797C 25091Y   26060.79562500  .00007416  00000+0  26871-3 0   600",
      "2 63797  42.9997 100.7430 0001377 263.1509  95.1329 15.27559033    13"
    ]
  },
  "63798": {
    "noradId": "63798",
    "tle": [
      "1 63798C 25091Z   26060.78868056  .00003093  00000+0  11203-3 0   605",
      "2 63798  43.0000  97.1816 0001279 274.1156  78.6537 15.27573854    13"
    ]
  },
  "63799": {
    "noradId": "63799",
    "tle": [
      "1 63799C 25091AA  26060.79562500  .00000562  00000+0  20363-4 0   608",
      "2 63799  43.0003  97.0353 0001342 262.5590 170.8706 15.27581203    16"
    ]
  },
  "63800": {
    "noradId": "63800",
    "tle": [
      "1 63800C 25091AB  26060.79354167  .00008188  00000+0  29652-3 0   600",
      "2 63800  43.0008  96.9953 0001405 271.4628 171.7321 15.27575499    12"
    ]
  },
  "63802": {
    "noradId": "63802",
    "tle": [
      "1 63802C 25091AC  26060.78868056  .00004463  00000+0  16172-3 0   603",
      "2 63802  43.0027  96.8378 0001417 269.2544 225.0644 15.27560566    10"
    ]
  },
  "63803": {
    "noradId": "63803",
    "tle": [
      "1 63803C 25091AD  26060.79562500  .00006413  00000+0  23223-3 0   602",
      "2 63803  43.0018  96.8661 0001417 269.2574 234.9259 15.27578905    16"
    ]
  },
  "63804": {
    "noradId": "63804",
    "tle": [
      "1 63804C 25092A   26060.79006944  .00021421  00000+0  77580-3 0   600",
      "2 63804  43.0001 217.5865 0001494 269.6291  17.4441 15.27559514    14"
    ]
  },
  "63805": {
    "noradId": "63805",
    "tle": [
      "1 63805C 25092B   26060.79145833  .00025624  00000+0  92814-3 0   608",
      "2 63805  42.9994 217.5047 0001295 266.8476  56.1793 15.27552073    12"
    ]
  },
  "63806": {
    "noradId": "63806",
    "tle": [
      "1 63806C 25092C   26060.79145833 -.00003002  00000+0 -10878-3 0   607",
      "2 63806  42.9995 217.4899 0001429 266.5884  63.5589 15.27564684    13"
    ]
  },
  "63807": {
    "noradId": "63807",
    "tle": [
      "1 63807C 25092D   26060.79493056  .00009865  00000+0  35731-3 0   607",
      "2 63807  43.0023 216.9130 0001756 271.3776 311.3185 15.27567358    14"
    ]
  },
  "63808": {
    "noradId": "63808",
    "tle": [
      "1 63808C 25092E   26060.79215278 -.00001315  00000+0 -47649-4 0   602",
      "2 63808  42.9994 217.2646 0001540 260.8300 165.0968 15.27568135    10"
    ]
  },
  "63809": {
    "noradId": "63809",
    "tle": [
      "1 63809C 25092F   26060.79006944  .00003106  00000+0  11248-3 0   604",
      "2 63809  42.9998 217.5693 0001405 263.3878  30.7636 15.27579646    17"
    ]
  },
  "63810": {
    "noradId": "63810",
    "tle": [
      "1 63810C 25092G   26060.79145833  .00009987  00000+0  36187-3 0   609",
      "2 63810  43.0018 217.0346 0001844 275.3929 245.7637 15.27553494    13"
    ]
  },
  "63811": {
    "noradId": "63811",
    "tle": [
      "1 63811C 25092H   26060.79631944  .00255560  00000+0  52552-2 0   606",
      "2 63811  42.9985 212.8366 0016343 328.7042 161.7025 15.44706111    12"
    ]
  },
  "63812": {
    "noradId": "63812",
    "tle": [
      "1 63812C 25092J   26060.79631944  .00011284  00000+0  40883-3 0   605",
      "2 63812  43.0013 216.7296 0001488 259.6991  41.4264 15.27557867    13"
    ]
  },
  "63813": {
    "noradId": "63813",
    "tle": [
      "1 63813C 25092K   26060.79354167  .00013781  00000+0  49921-3 0   601",
      "2 63813  43.0024 213.3009 0001543 266.3918 355.5791 15.27559258    17"
    ]
  },
  "63814": {
    "noradId": "63814",
    "tle": [
      "1 63814C 25092L   26060.79423611 -.00004201  00000+0 -15221-3 0   608",
      "2 63814  43.0018 216.8457 0001524 268.5067 338.6891 15.27570799    10"
    ]
  },
  "63815": {
    "noradId": "63815",
    "tle": [
      "1 63815C 25092M   26060.77965278  .00018346  00000+0  66452-3 0   602",
      "2 63815  43.0018 216.9485 0001619 269.0184 250.7875 15.27559119    13"
    ]
  },
  "63816": {
    "noradId": "63816",
    "tle": [
      "1 63816C 25092N   26060.78937500  .00013812  00000+0  50022-3 0   600",
      "2 63816  42.9995 217.4820 0001474 278.1413  47.5596 15.27567016    17"
    ]
  },
  "63817": {
    "noradId": "63817",
    "tle": [
      "1 63817C 25092P   26060.79145833  .00016795  00000+0  60834-3 0   607",
      "2 63817  43.0009 216.7265 0001469 266.3807  22.1014 15.27559495    17"
    ]
  },
  "63818": {
    "noradId": "63818",
    "tle": [
      "1 63818C 25092Q   26060.79493056 -.00006034  00000+0 -21861-3 0   605",
      "2 63818  43.0015 216.7946 0001463 262.0556  10.1668 15.27577670    16"
    ]
  },
  "63819": {
    "noradId": "63819",
    "tle": [
      "1 63819C 25092R   26060.79076389  .00014033  00000+0  50835-3 0   601",
      "2 63819  42.9998 217.3999 0001456 264.0970  90.5230 15.27559629    15"
    ]
  },
  "63820": {
    "noradId": "63820",
    "tle": [
      "1 63820C 25092S   26060.78451389  .00010323  00000+0  37400-3 0   600",
      "2 63820  42.9996 217.3736 0001510 266.5721  89.0118 15.27558832    19"
    ]
  },
  "63821": {
    "noradId": "63821",
    "tle": [
      "1 63821C 25092T   26060.78104167 -.00001077  00000+0 -39009-4 0   606",
      "2 63821  42.9993 217.3424 0001550 261.3764  96.2992 15.27568422    11"
    ]
  },
  "63822": {
    "noradId": "63822",
    "tle": [
      "1 63822C 25092U   26060.78937500  .00016948  00000+0  61385-3 0   604",
      "2 63822  42.9999 213.9472 0001431 266.3402  77.9626 15.27561507    12"
    ]
  },
  "63823": {
    "noradId": "63823",
    "tle": [
      "1 63823C 25092V   26060.78937500  .00005216  00000+0  18895-3 0   609",
      "2 63823  43.0009 213.1139 0001447 268.0347  62.9378 15.27570873    17"
    ]
  },
  "63824": {
    "noradId": "63824",
    "tle": [
      "1 63824C 25092W   26060.78937500  .00016941  00000+0  61366-3 0   608",
      "2 63824  43.0015 216.8032 0001530 266.6133 342.0987 15.27559147    16"
    ]
  },
  "63825": {
    "noradId": "63825",
    "tle": [
      "1 63825C 25092X   26060.79493056  .00015992  00000+0  57955-3 0   607",
      "2 63825  42.9989 217.1942 0001516 271.4672 190.9891 15.27544345    13"
    ]
  },
  "63826": {
    "noradId": "63826",
    "tle": [
      "1 63826C 25092Y   26060.79562500  .00011414  00000+0  41345-3 0   600",
      "2 63826  42.9997 217.4248 0001555 268.4784  98.7365 15.27564733    12"
    ]
  },
  "63827": {
    "noradId": "63827",
    "tle": [
      "1 63827C 25092Z   26060.78868056 -.00000344  00000+0 -12457-4 0   600",
      "2 63827  42.9994 217.5470 0001447 264.7215  28.9016 15.27567374    18"
    ]
  },
  "63828": {
    "noradId": "63828",
    "tle": [
      "1 63828C 25092AA  26060.79284722  .00004867  00000+0  17631-3 0   604",
      "2 63828  43.0000 217.1340 0001856 269.0322 210.2463 15.27567084    12"
    ]
  },
  "63829": {
    "noradId": "63829",
    "tle": [
      "1 63829C 25092AB  26060.79215278 -.00006078  00000+0 -22022-3 0   603",
      "2 63829  43.0022 216.9645 0001570 268.1588 285.1143 15.27572102    12"
    ]
  },
  "63830": {
    "noradId": "63830",
    "tle": [
      "1 63830C 25092AC  26060.79145833  .00005933  00000+0  21493-3 0   602",
      "2 63830  43.0014 217.0560 0001701 269.5385 237.4710 15.27567336    12"
    ]
  },
  "63831": {
    "noradId": "63831",
    "tle": [
      "1 63831C 25092AD  26060.79076389  .00016383  00000+0  59354-3 0   600",
      "2 63831  42.9991 217.2036 0001565 273.6019 172.9466 15.27553791    14"
    ]
  },
  "63832": {
    "noradId": "63832",
    "tle": [
      "1 63832C 25092AE  26060.79284722  .00011765  00000+0  42609-3 0   607",
      "2 63832  43.0023 216.9944 0001871 272.2436 270.6747 15.27567790    17"
    ]
  },
  "63836": {
    "noradId": "63836",
    "tle": [
      "1 63836C 25093A   26060.79006944  .00000714  00000+0  25859-4 0   601",
      "2 63836  43.0001 122.6477 0001480 253.1286  68.2928 15.27558963    12"
    ]
  }
}